{"type": "FeatureCollection", "features": [ {"type": "Feature", "properties": {"norad_id": 46979, "name": "IRIDIUM 33 DEB", "group": "iridium-33-debris", "lat": 19.314314560602437, "lon": -138.298164736969, "alt_km": 578.6871254882908, "timestamp": "2025-12-24T16:52:41.922210+00:00", "meta": {"OBJECT_NAME": "IRIDIUM 33 DEB", "OBJECT_ID": "1997-051ACM", "EPOCH": "2025-12-23T20:49:19.070976", "MEAN_MOTION": 14.90275194, "ECCENTRICITY": 0.0028145, "INCLINATION": 86.3323, "RA_OF_ASC_NODE": 43.3788, "ARG_OF_PERICENTER": 182.9796, "MEAN_ANOMALY": 177.1268, "EPHEMERIS_TYPE": 0, "CLASSIFICATION_TYPE": "U", "NORAD_CAT_ID": 46979, "ELEMENT_SET_NO": 999, "REV_AT_EPOCH": 35594, "BSTAR": 0.0037445, "MEAN_MOTION_DOT": 0.00036787, "MEAN_MOTION_DDOT": 0}, "tle": {"line1": "1 46979U 97051ACM 25357.86758184  .00036787  00000+0  37445-2 0  9991", "line2": "2 46979  86.3323  43.3788 0028145 182.9796 177.1268 14.90275194355947"}}, "geometry": {"type": "Point", "coordinates": [-138.298164736969, 19.314314560602437]}}]}